NORAD_CAT_ID,OBJECT_NAME,OBJECT_TYPE,EPOCH,MEAN_MOTION,ECCENTRICITY,INCLINATION,RA_OF_ASC_NODE,ARG_OF_PERICENTER,MEAN_ANOMALY,BSTAR,MEAN_MOTION_DOT,MEAN_MOTION_DDOT,TLE_LINE0,TLE_LINE1,TLE_LINE2,SEMIMAJOR_AXIS,PERIOD,APOGEE,PERIGEE,DECAYED
55628.0,STARLINK-5484,PAYLOAD,2023-02-22 16:00:00,15.94434231,0.0037931,70.0,136.7865,163.2836,234.4693,-0.0026954,-0.01090906,0.0003638,0 STARLINK-5484,1 55628U 23021A   23053.66667824 -.01090906  36380-3 -26954-2 0  9990,2 55628  70.0000 136.7865 0037931 163.2836 234.4693 15.94434231  1304,6668.028,90.314,315.186,264.601,0.0
55628.0,STARLINK-5484,PAYLOAD,2023-02-22 22:00:00,15.9393439,0.0034587,69.9998,136.0577,163.3756,228.6638,-0.0029409,-0.01143827,0.000395,0 STARLINK-5484,1 55628U 23021A   23053.91667824 -.01143827  39500-3 -29409-2 0  9994,2 55628  69.9998 136.0577 0034587 163.3756 228.6638 15.93934390  1300,6669.422,90.342,314.355,268.22,0.0
55628.0,STARLINK-5484,PAYLOAD,2023-02-23 08:00:01,15.93030092,0.0030023,70.0,134.845,165.2006,96.2881,-0.0030348,-0.01108517,0.00036938,0 STARLINK-5484,1 55628U 23021A   23054.33334491 -.01108517  36938-3 -30348-2 0  9995,2 55628  70.0000 134.8450 0030023 165.2006  96.2881 15.93030092  1409,6671.946,90.394,313.842,273.78,0.0
55628.0,STARLINK-5484,PAYLOAD,2023-02-23 14:00:01,15.92498807,0.0027822,70.0001,134.1181,166.0156,88.5018,-0.003133,-0.0110582,0.00036576,0 STARLINK-5484,1 55628U 23021A   23054.58334491 -.01105820  36576-3 -31330-2 0  9996,2 55628  70.0001 134.1181 0027822 166.0156  88.5018 15.92498807  1308,6673.43,90.424,313.862,276.728,0.0
55628.0,STARLINK-5484,PAYLOAD,2023-02-23 16:00:00,15.92320434,0.0026953,70.0001,133.8757,166.7741,205.3147,-0.0031639,-0.01103785,0.00036386,0 STARLINK-5484,1 55628U 23021A   23054.66667824 -.01103785  36386-3 -31639-2 0  9993,2 55628  70.0001 133.8757 0026953 166.7741 205.3147 15.92320434  1452,6673.928,90.434,313.781,277.805,0.0
55628.0,STARLINK-5484,PAYLOAD,2023-02-23 22:00:00,15.91829062,0.0024173,69.9999,133.1492,167.7718,196.6927,-0.0034699,-0.01171261,0.000404,0 STARLINK-5484,1 55628U 23021A   23054.91667824 -.01171261  40400-3 -34699-2 0  9996,2 55628  69.9999 133.1492 0024173 167.7718 196.6927 15.91829062  1303,6675.302,90.462,313.303,281.03,0.0
55628.0,STARLINK-5484,PAYLOAD,2023-02-24 02:00:01,15.91424409,0.0022995,69.9999,132.6656,168.8831,70.2672,-0.0032724,-0.01079549,0.00034614,0 STARLINK-5484,1 55628U 23021A   23055.08334491 -.01079549  34614-3 -32724-2 0  9999,2 55628  69.9999 132.6656 0022995 168.8831  70.2672 15.91424409  1521,6676.433,90.485,313.651,282.946,0.0
55628.0,STARLINK-5484,PAYLOAD,2023-02-24 08:00:01,15.90899664,0.002024,70.0002,131.9403,171.7269,59.0191,-0.0034086,-0.01088342,0.00034954,0 STARLINK-5484,1 55628U 23021A   23055.33334491 -.01088342  34954-3 -34086-2 0  9998,2 55628  70.0002 131.9403 0020240 171.7269  59.0191 15.90899664  1563,6677.901,90.515,313.282,286.25,0.0
55628.0,STARLINK-5484,PAYLOAD,2023-02-24 14:00:01,15.90374329,0.001799,70.0002,131.2157,174.4469,47.4183,-0.003538,-0.01095314,0.00035187,0 STARLINK-5484,1 55628U 23021A   23055.58334491 -.01095314  35187-3 -35380-2 0  9999,2 55628  70.0002 131.2157 0017990 174.4469  47.4183 15.90374329  1302,6679.372,90.545,313.253,289.22,0.0
55628.0,STARLINK-5484,PAYLOAD,2023-02-24 18:00:00,15.90008987,0.001659,69.9997,130.7332,177.1803,278.5063,-0.0035425,-0.01074335,0.00033831,0 STARLINK-5484,1 55628U 23021A   23055.75001157 -.01074335  33831-3 -35425-2 0  9992,2 55628  69.9997 130.7332 0016590 177.1803 278.5063 15.90008987  1632,6680.395,90.566,313.342,291.177,0.0
55628.0,STARLINK-5484,PAYLOAD,2023-02-24 22:00:00,15.89701757,0.0014758,70.0,130.2502,180.573,148.6996,-0.003902,-0.01161353,0.0003895,0 STARLINK-5484,1 55628U 23021A   23055.91667824 -.01161353  38950-3 -39020-2 0  9998,2 55628  70.0000 130.2502 0014758 180.5730 148.6996 15.89701757  1304,6681.255,90.583,312.981,293.26,0.0
55628.0,STARLINK-5484,PAYLOAD,2023-02-25 02:00:01,15.89298544,0.0013626,70.0001,129.768,183.9107,18.7741,-0.0036606,-0.01066831,0.00033165,0 STARLINK-5484,1 55628U 23021A   23056.08334491 -.01066831  33165-3 -36606-2 0  9993,2 55628  70.0001 129.7680 0013626 183.9107  18.7741 15.89298544  1684,6682.385,90.606,313.356,295.145,0.0
55628.0,STARLINK-5484,PAYLOAD,2023-02-25 08:00:01,15.88768643,0.0011631,69.9999,129.0449,191.4147,0.9618,-0.0037708,-0.01067806,0.00033052,0 STARLINK-5484,1 55628U 23021A   23056.33334491 -.01067806  33052-3 -37708-2 0  9993,2 55628  69.9999 129.0449 0011631 191.4147   0.9618 15.88768643  1727,6683.871,90.636,313.51,297.962,0.0
55628.0,STARLINK-5484,PAYLOAD,2023-02-25 14:00:01,15.88248563,0.0010155,70.0001,128.3229,200.9626,340.6231,-0.0039281,-0.01082327,0.0003372,0 STARLINK-5484,1 55628U 23021A   23056.58334491 -.01082327  33720-3 -39281-2 0  9995,2 55628  70.0001 128.3229 0010155 200.9626 340.6231 15.88248563  1763,6685.33,90.666,313.984,300.406,0.0
55628.0,STARLINK-5484,PAYLOAD,2023-02-25 22:00:00,15.87565546,0.0008706,69.9998,127.36,217.3071,69.1495,-0.0042605,-0.01018281,0.0,0 STARLINK-5484,1 55628U 23021A   23056.91667824 -.01018281  00000-0 -42605-2 0  9995,2 55628  69.9998 127.3600 0008706 217.3071  69.1495 15.87565546  1815,6687.248,90.705,314.934,303.291,0.0
55628.0,STARLINK-5484,PAYLOAD,2023-02-26 06:00:00,15.86876595,0.0008546,69.9998,126.3987,240.3551,150.1229,-0.004516,-0.01040269,0.0,0 STARLINK-5484,1 55628U 23021A   23057.25001157 -.01040269  00000-0 -45160-2 0  9994,2 55628  69.9998 126.3987 0008546 240.3551 150.1229 15.86876595  1862,6689.183,90.744,316.764,305.331,0.0
55628.0,STARLINK-5484,PAYLOAD,2023-02-26 14:00:01,15.8611691,0.0008928,70.0,125.4387,257.0953,236.5882,-0.0042942,-0.00961813,0.0,0 STARLINK-5484,1 55628U 23021A   23057.58334491 -.00961813  00000-0 -42942-2 0  9991,2 55628  70.0000 125.4387 0008928 257.0953 236.5882 15.86116910  1309,6691.319,90.788,319.158,307.21,0.0
55628.0,STARLINK-5484,PAYLOAD,2023-02-26 22:00:00,15.85419364,0.0008699,69.9998,124.4789,268.1776,327.8386,-0.0045187,-0.00976353,0.0,0 STARLINK-5484,1 55628U 23021A   23057.91667824 -.00976353  00000-0 -45187-2 0  9996,2 55628  69.9998 124.4789 0008699 268.1776 327.8386 15.85419364  1972,6693.281,90.828,320.969,309.324,0.0
55628.0,STARLINK-5484,PAYLOAD,2023-02-27 14:00:01,15.84033673,0.0007846,70.0002,122.5635,271.4201,166.7132,-0.0050584,-0.01016586,0.0,0 STARLINK-5484,1 55628U 23021A   23058.58334491 -.01016586  00000-0 -50584-2 0  9992,2 55628  70.0002 122.5635 0007846 271.4201 166.7132 15.84033673  2089,6697.184,90.907,324.304,313.794,0.0
55628.0,STARLINK-5484,PAYLOAD,2023-02-27 22:00:01,15.83323352,0.0004177,70.0002,121.6072,284.3728,253.6187,-0.0051848,-0.01005332,0.0,0 STARLINK-5484,1 55628U 23021A   23058.91668981 -.01005332  00000-0 -51848-2 0  9994,2 55628  70.0002 121.6072 0004177 284.3728 253.6187 15.83323352  1300,6699.187,90.948,323.85,318.254,0.0
55628.0,STARLINK-5484,PAYLOAD,2023-02-28 14:00:01,15.81893627,0.0003678,70.0001,119.6973,271.4072,103.5714,-0.0054145,-0.00983572,0.0,0 STARLINK-5484,1 55628U 23021A   23059.58334491 -.00983572  00000-0 -54145-2 0  9997,2 55628  70.0001 119.6973 0003678 271.4072 103.5714 15.81893627  1304,6703.223,91.03,327.553,322.622,0.0
55628.0,STARLINK-5484,PAYLOAD,2023-02-28 16:00:00,15.81709502,0.0003523,69.9999,119.4587,272.5893,216.7848,-0.0053974,-0.00973157,0.0,0 STARLINK-5484,1 55628U 23021A   23059.66667824 -.00973157  00000-0 -53974-2 0  9992,2 55628  69.9999 119.4587 0003523 272.5893 216.7848 15.81709502  2256,6703.743,91.041,327.97,323.246,0.0
55628.0,STARLINK-5484,PAYLOAD,2023-02-28 22:00:00,15.81209991,0.0003727,70.0001,118.7436,280.6903,191.5285,-0.0057876,-0.01014605,0.0,0 STARLINK-5484,1 55628U 23021A   23059.91667824 -.01014605  00000-0 -57876-2 0  9990,2 55628  70.0001 118.7436 0003727 280.6903 191.5285 15.81209991  1303,6705.155,91.069,329.519,324.521,0.0
55628.0,STARLINK-5484,PAYLOAD,2023-03-01 14:00:01,15.79790633,0.0003533,69.9999,116.8399,270.6281,33.5524,-0.0061153,-0.01005041,0.0,0 STARLINK-5484,1 55628U 23021A   23060.58334491 -.01005041  00000-0 -61153-2 0  9993,2 55628  69.9999 116.8399 0003533 270.6281  33.5524 15.79790633  2392,6709.17,91.151,333.406,328.665,0.0
55628.0,STARLINK-5484,PAYLOAD,2023-03-01 22:00:00,15.79074015,0.0003724,69.9999,115.8891,280.362,118.5323,-0.0062294,-0.00992434,0.0,0 STARLINK-5484,1 55628U 23021A   23060.91667824 -.00992434  00000-0 -62294-2 0  9996,2 55628  69.9999 115.8891 0003724 280.3620 118.5323 15.79074015  1305,6711.2,91.193,335.564,330.566,0.0
55628.0,STARLINK-5484,PAYLOAD,2023-03-02 20:00:01,15.77122153,0.0003445,69.9998,113.2806,273.7581,291.2183,-0.0067131,-0.00980598,0.0,0 STARLINK-5484,1 55628U 23021A   23061.83334491 -.00980598  00000-0 -67131-2 0  9992,2 55628  69.9998 113.2806 0003445 273.7581 291.2183 15.77122153  1302,6716.736,91.306,340.915,336.287,0.0
55628.0,STARLINK-5484,PAYLOAD,2023-03-03 12:00:00,15.75704335,0.0003708,70.0003,111.3884,281.3332,105.8582,-0.0070876,-0.00973204,0.0,0 STARLINK-5484,1 55628U 23021A   23062.50001157 -.00973204  00000-0 -70876-2 0  9993,2 55628  70.0003 111.3884 0003708 281.3332 105.8582 15.75704335  2702,6720.765,91.388,345.122,340.138,0.0
55628.0,STARLINK-5484,PAYLOAD,2023-03-03 14:00:01,15.75519536,0.0003487,70.0001,111.1524,274.7777,224.9547,-0.0070398,-0.00960199,0.0,0 STARLINK-5484,1 55628U 23021A   23062.58334491 -.00960199  00000-0 -70398-2 0  9999,2 55628  70.0001 111.1524 0003487 274.7777 224.9547 15.75519536  1308,6721.29,91.398,345.499,340.811,0.0
55628.0,STARLINK-5484,PAYLOAD,2023-03-03 22:00:00,15.74820455,0.0003468,70.0,110.2077,270.3598,318.9939,-0.007363,-0.00972496,0.0,0 STARLINK-5484,1 55628U 23021A   23062.91667824 -.00972496  00000-0 -73630-2 0  9990,2 55628  70.0000 110.2077 0003468 270.3598 318.9939 15.74820455  1305,6723.279,91.439,347.476,342.813,0.0
